BEIDOU-3 M25 (C47)      
1 61186U 24168B   26063.43879645 -.00000064  00000+0  00000+0 0  9995
2 61186  54.5657 305.8833 0004270 318.6783 191.0216  1.86230156  9837
BEIDOU-3 M27 (C49)      
1 61187U 24168C   26064.31689484 -.00000067  00000+0  00000+0 0  9997
2 61187  54.5604 305.8362 0002980  20.4343 132.9740  1.86230358  7325
