[{"OBJECT_NAME":"BEIDOU-3 M25 (C47)","OBJECT_ID":"2024-168B","EPOCH":"2026-03-04T10:31:52.013280","MEAN_MOTION":1.86230156,"ECCENTRICITY":0.000427,"INCLINATION":54.5657,"RA_OF_ASC_NODE":305.8833,"ARG_OF_PERICENTER":318.6783,"MEAN_ANOMALY":191.0216,"EPHEMERIS_TYPE":0,"CLASSIFICATION_TYPE":"U","NORAD_CAT_ID":61186,"ELEMENT_SET_NO":999,"REV_AT_EPOCH":983,"BSTAR":0,"MEAN_MOTION_DOT":-6.4e-7,"MEAN_MOTION_DDOT":0},{"OBJECT_NAME":"BEIDOU-3 M27 (C49)","OBJECT_ID":"2024-168C","EPOCH":"2026-03-05T07:36:19.714176","MEAN_MOTION":1.86230358,"ECCENTRICITY":0.000298,"INCLINATION":54.5604,"RA_OF_ASC_NODE":305.8362,"ARG_OF_PERICENTER":20.4343,"MEAN_ANOMALY":132.974,"EPHEMERIS_TYPE":0,"CLASSIFICATION_TYPE":"U","NORAD_CAT_ID":61187,"ELEMENT_SET_NO":999,"REV_AT_EPOCH":732,"BSTAR":0,"MEAN_MOTION_DOT":-6.7e-7,"MEAN_MOTION_DDOT":0}]
